CCSDS_OMM_VERS = 2.0
CREATION_DATE  = 
ORIGINATOR     = 

OBJECT_NAME    = STARLINK-35730
OBJECT_ID      = 2025-247J
CENTER_NAME    = EARTH
REF_FRAME      = TEME
TIME_SYSTEM    = UTC
MEAN_ELEMENT_THEORY = SGP/SGP4

EPOCH          = 2025-11-25T12:00:05.998752
MEAN_MOTION    = 15.39670060
ECCENTRICITY   = .0002179
INCLINATION    = 53.1600
RA_OF_ASC_NODE = 318.7247
ARG_OF_PERICENTER = 70.7230
MEAN_ANOMALY   = 332.3556

EPHEMERIS_TYPE = 0
CLASSIFICATION_TYPE = U
NORAD_CAT_ID   = 66273
ELEMENT_SET_NO = 999
REV_AT_EPOCH   = 516
BSTAR          = -.28254E-2
MEAN_MOTION_DOT = -.111963E-2
MEAN_MOTION_DDOT = 0

CCSDS_OMM_VERS = 2.0
CREATION_DATE  = 
ORIGINATOR     = 

OBJECT_NAME    = STARLINK-35760
OBJECT_ID      = 2025-247K
CENTER_NAME    = EARTH
REF_FRAME      = TEME
TIME_SYSTEM    = UTC
MEAN_ELEMENT_THEORY = SGP/SGP4

EPOCH          = 2025-11-25T12:00:05.998752
MEAN_MOTION    = 15.39576886
ECCENTRICITY   = .0002346
INCLINATION    = 53.1600
RA_OF_ASC_NODE = 318.7209
ARG_OF_PERICENTER = 90.7975
MEAN_ANOMALY   = 314.0969

EPHEMERIS_TYPE = 0
CLASSIFICATION_TYPE = U
NORAD_CAT_ID   = 66274
ELEMENT_SET_NO = 999
REV_AT_EPOCH   = 484
BSTAR          = .16897E-2
MEAN_MOTION_DOT = .67694E-3
MEAN_MOTION_DDOT = 0

CCSDS_OMM_VERS = 2.0
CREATION_DATE  = 
ORIGINATOR     = 

OBJECT_NAME    = STARLINK-35752
OBJECT_ID      = 2025-247L
CENTER_NAME    = EARTH
REF_FRAME      = TEME
TIME_SYSTEM    = UTC
MEAN_ELEMENT_THEORY = SGP/SGP4

EPOCH          = 2025-11-25T12:00:05.998752
MEAN_MOTION    = 15.39567447
ECCENTRICITY   = .0001185
INCLINATION    = 53.1591
RA_OF_ASC_NODE = 318.6729
ARG_OF_PERICENTER = 74.5749
MEAN_ANOMALY   = 354.2334

EPHEMERIS_TYPE = 0
CLASSIFICATION_TYPE = U
NORAD_CAT_ID   = 66275
ELEMENT_SET_NO = 999
REV_AT_EPOCH   = 484
BSTAR          = .16484E-2
MEAN_MOTION_DOT = .65995E-3
MEAN_MOTION_DDOT = 0

CCSDS_OMM_VERS = 2.0
CREATION_DATE  = 
ORIGINATOR     = 

OBJECT_NAME    = STARLINK-35742
OBJECT_ID      = 2025-247M
CENTER_NAME    = EARTH
REF_FRAME      = TEME
TIME_SYSTEM    = UTC
MEAN_ELEMENT_THEORY = SGP/SGP4

EPOCH          = 2025-11-25T12:00:05.998752
MEAN_MOTION    = 15.39567813
ECCENTRICITY   = .0001256
INCLINATION    = 53.1591
RA_OF_ASC_NODE = 318.6691
ARG_OF_PERICENTER = 76.6805
MEAN_ANOMALY   = 353.9924

EPHEMERIS_TYPE = 0
CLASSIFICATION_TYPE = U
NORAD_CAT_ID   = 66276
ELEMENT_SET_NO = 999
REV_AT_EPOCH   = 516
BSTAR          = .16365E-2
MEAN_MOTION_DOT = .65508E-3
MEAN_MOTION_DDOT = 0

CCSDS_OMM_VERS = 2.0
CREATION_DATE  = 
ORIGINATOR     = 

OBJECT_NAME    = STARLINK-35708
OBJECT_ID      = 2025-247N
CENTER_NAME    = EARTH
REF_FRAME      = TEME
TIME_SYSTEM    = UTC
MEAN_ELEMENT_THEORY = SGP/SGP4

EPOCH          = 2025-11-25T12:00:05.998752
MEAN_MOTION    = 15.39565933
ECCENTRICITY   = .0001537
INCLINATION    = 53.1585
RA_OF_ASC_NODE = 318.6210
ARG_OF_PERICENTER = 70.3885
MEAN_ANOMALY   = 24.1785

EPHEMERIS_TYPE = 0
CLASSIFICATION_TYPE = U
NORAD_CAT_ID   = 66277
ELEMENT_SET_NO = 999
REV_AT_EPOCH   = 516
BSTAR          = .16826E-2
MEAN_MOTION_DOT = .6738E-3
MEAN_MOTION_DDOT = 0

CCSDS_OMM_VERS = 2.0
CREATION_DATE  = 
ORIGINATOR     = 

OBJECT_NAME    = STARLINK-35713
OBJECT_ID      = 2025-247P
CENTER_NAME    = EARTH
REF_FRAME      = TEME
TIME_SYSTEM    = UTC
MEAN_ELEMENT_THEORY = SGP/SGP4

EPOCH          = 2025-11-25T12:00:05.998752
MEAN_MOTION    = 15.42255923
ECCENTRICITY   = .0001118
INCLINATION    = 53.1591
RA_OF_ASC_NODE = 318.5753
ARG_OF_PERICENTER = 74.1247
MEAN_ANOMALY   = 43.3116

EPHEMERIS_TYPE = 0
CLASSIFICATION_TYPE = U
NORAD_CAT_ID   = 66278
ELEMENT_SET_NO = 999
REV_AT_EPOCH   = 516
BSTAR          = -.48646E-1
MEAN_MOTION_DOT = -.1903811E-1
MEAN_MOTION_DDOT = 0

CCSDS_OMM_VERS = 2.0
CREATION_DATE  = 
ORIGINATOR     = 

OBJECT_NAME    = STARLINK-35724
OBJECT_ID      = 2025-247Q
CENTER_NAME    = EARTH
REF_FRAME      = TEME
TIME_SYSTEM    = UTC
MEAN_ELEMENT_THEORY = SGP/SGP4

EPOCH          = 2025-11-25T12:00:05.998752
MEAN_MOTION    = 15.42249548
ECCENTRICITY   = .0000983
INCLINATION    = 53.1589
RA_OF_ASC_NODE = 318.5710
ARG_OF_PERICENTER = 73.0358
MEAN_ANOMALY   = 46.2817

EPHEMERIS_TYPE = 0
CLASSIFICATION_TYPE = U
NORAD_CAT_ID   = 66279
ELEMENT_SET_NO = 999
REV_AT_EPOCH   = 479
BSTAR          = -.48754E-1
MEAN_MOTION_DOT = -.1907168E-1
MEAN_MOTION_DDOT = 0

CCSDS_OMM_VERS = 2.0
CREATION_DATE  = 
ORIGINATOR     = 

OBJECT_NAME    = STARLINK-35726
OBJECT_ID      = 2025-247R
CENTER_NAME    = EARTH
REF_FRAME      = TEME
TIME_SYSTEM    = UTC
MEAN_ELEMENT_THEORY = SGP/SGP4

EPOCH          = 2025-11-25T12:00:05.998752
MEAN_MOTION    = 15.39523565
ECCENTRICITY   = .0001205
INCLINATION    = 53.1586
RA_OF_ASC_NODE = 318.6170
ARG_OF_PERICENTER = 66.3759
MEAN_ANOMALY   = 30.0420

EPHEMERIS_TYPE = 0
CLASSIFICATION_TYPE = U
NORAD_CAT_ID   = 66280
ELEMENT_SET_NO = 999
REV_AT_EPOCH   = 484
BSTAR          = .21065E-2
MEAN_MOTION_DOT = .84529E-3
MEAN_MOTION_DDOT = 0

CCSDS_OMM_VERS = 2.0
CREATION_DATE  = 
ORIGINATOR     = 

OBJECT_NAME    = STARLINK-35727
OBJECT_ID      = 2025-247S
CENTER_NAME    = EARTH
REF_FRAME      = TEME
TIME_SYSTEM    = UTC
MEAN_ELEMENT_THEORY = SGP/SGP4

EPOCH          = 2025-11-25T12:00:05.998752
MEAN_MOTION    = 15.45129595
ECCENTRICITY   = .0001278
INCLINATION    = 53.1588
RA_OF_ASC_NODE = 318.5415
ARG_OF_PERICENTER = 72.4230
MEAN_ANOMALY   = 61.4947

EPHEMERIS_TYPE = 0
CLASSIFICATION_TYPE = U
NORAD_CAT_ID   = 66281
ELEMENT_SET_NO = 999
REV_AT_EPOCH   = 484
BSTAR          = -.4748E-1
MEAN_MOTION_DOT = -.2033781E-1
MEAN_MOTION_DDOT = 0

CCSDS_OMM_VERS = 2.0
CREATION_DATE  = 
ORIGINATOR     = 

OBJECT_NAME    = STARLINK-35776
OBJECT_ID      = 2025-247T
CENTER_NAME    = EARTH
REF_FRAME      = TEME
TIME_SYSTEM    = UTC
MEAN_ELEMENT_THEORY = SGP/SGP4

EPOCH          = 2025-11-24T16:48:38.745216
MEAN_MOTION    = 15.49010597
ECCENTRICITY   = .00009194
INCLINATION    = 53.1591
RA_OF_ASC_NODE = 322.3468
ARG_OF_PERICENTER = 38.6886
MEAN_ANOMALY   = 321.4189

EPHEMERIS_TYPE = 0
CLASSIFICATION_TYPE = U
NORAD_CAT_ID   = 66282
ELEMENT_SET_NO = 999
REV_AT_EPOCH   = 491
BSTAR          = -.29734712E-2
MEAN_MOTION_DOT = -.160767E-2
MEAN_MOTION_DDOT = 0

CCSDS_OMM_VERS = 2.0
CREATION_DATE  = 
ORIGINATOR     = 

OBJECT_NAME    = STARLINK-35774
OBJECT_ID      = 2025-247U
CENTER_NAME    = EARTH
REF_FRAME      = TEME
TIME_SYSTEM    = UTC
MEAN_ELEMENT_THEORY = SGP/SGP4

EPOCH          = 2025-11-25T11:22:57.970848
MEAN_MOTION    = 15.48652336
ECCENTRICITY   = .0000167
INCLINATION    = 53.1594
RA_OF_ASC_NODE = 318.6430
ARG_OF_PERICENTER = 84.0151
MEAN_ANOMALY   = 276.0877

EPHEMERIS_TYPE = 0
CLASSIFICATION_TYPE = U
NORAD_CAT_ID   = 66283
ELEMENT_SET_NO = 999
REV_AT_EPOCH   = 503
BSTAR          = -.36282E-2
MEAN_MOTION_DOT = -.192822E-2
MEAN_MOTION_DDOT = 0

CCSDS_OMM_VERS = 2.0
CREATION_DATE  = 
ORIGINATOR     = 

OBJECT_NAME    = STARLINK-35830
OBJECT_ID      = 2025-247V
CENTER_NAME    = EARTH
REF_FRAME      = TEME
TIME_SYSTEM    = UTC
MEAN_ELEMENT_THEORY = SGP/SGP4

EPOCH          = 2025-11-25T09:49:31.363392
MEAN_MOTION    = 15.48823472
ECCENTRICITY   = .0000739
INCLINATION    = 53.1591
RA_OF_ASC_NODE = 318.9491
ARG_OF_PERICENTER = 97.4331
MEAN_ANOMALY   = 262.6762

EPHEMERIS_TYPE = 0
CLASSIFICATION_TYPE = U
NORAD_CAT_ID   = 66284
ELEMENT_SET_NO = 999
REV_AT_EPOCH   = 502
BSTAR          = -.41327E-2
MEAN_MOTION_DOT = -.220138E-2
MEAN_MOTION_DDOT = 0

