STARLINK-35730          
1 66273U 25247J   25329.50006943 -.00111963  00000+0 -28254-2 0  9997
2 66273  53.1600 318.7247 0002179  70.7230 332.3556 15.39670060  5167
STARLINK-35760          
1 66274U 25247K   25329.50006943  .00067694  00000+0  16897-2 0  9997
2 66274  53.1600 318.7209 0002346  90.7975 314.0969 15.39576886  4840
STARLINK-35752          
1 66275U 25247L   25329.50006943  .00065995  00000+0  16484-2 0  9992
2 66275  53.1591 318.6729 0001185  74.5749 354.2334 15.39567447  4840
STARLINK-35742          
1 66276U 25247M   25329.50006943  .00065508  00000+0  16365-2 0  9991
2 66276  53.1591 318.6691 0001256  76.6805 353.9924 15.39567813  5168
STARLINK-35708          
1 66277U 25247N   25329.50006943  .00067380  00000+0  16826-2 0  9994
2 66277  53.1585 318.6210 0001537  70.3885  24.1785 15.39565933  5163
STARLINK-35713          
1 66278U 25247P   25329.50006943 -.01903811  00000+0 -48646-1 0  9990
2 66278  53.1591 318.5753 0001118  74.1247  43.3116 15.42255923  5161
STARLINK-35724          
1 66279U 25247Q   25329.50006943 -.01907168  00000+0 -48754-1 0  9990
2 66279  53.1589 318.5710 0000983  73.0358  46.2817 15.42249548  4796
STARLINK-35726          
1 66280U 25247R   25329.50006943  .00084529  00000+0  21065-2 0  9993
2 66280  53.1586 318.6170 0001205  66.3759  30.0420 15.39523565  4841
STARLINK-35727          
1 66281U 25247S   25329.50006943 -.02033781  00000+0 -47480-1 0  9990
2 66281  53.1588 318.5415 0001278  72.4230  61.4947 15.45129595  4841
STARLINK-35776          
1 66282U 25247T   25328.70044844 -.00160767  00000+0 -29735-2 0  9991
2 66282  53.1591 322.3468 0000919  38.6886 321.4189 15.49010597  4919
STARLINK-35774          
1 66283U 25247U   25329.47428207 -.00192822  00000+0 -36282-2 0  9998
2 66283  53.1594 318.6430 0000167  84.0151 276.0877 15.48652336  5030
STARLINK-35830          
1 66284U 25247V   25329.40939078 -.00220138  00000+0 -41327-2 0  9993
2 66284  53.1591 318.9491 0000739  97.4331 262.6762 15.48823472  5025
